#aV2021  7 26  0  0  0.00000000     288 DD+AD WGS84 FIT  NGA
## 2168  86400.00000000   300.00000000 59421 0.0000000000000
+   32     1  2  3  4  5  6  7  8  9 10 11 12 13 14 15 16 17
+         18 19 20 21 22 23 24 25 26 27 28 29 30 31 32  0  0
+          0  0  0  0  0  0  0  0  0  0  0  0  0  0  0  0  0
+          0  0  0  0  0  0  0  0  0  0  0  0  0  0  0  0  0
+          0  0  0  0  0  0  0  0  0  0  0  0  0  0  0  0  0
++         2  2  2  2  2  2  2  2  2  2  2  2  2  2  2  2  2
++         2  2  2  2  2  2  2  2  2  2  2  2  2  2  2  0  0
++         0  0  0  0  0  0  0  0  0  0  0  0  0  0  0  0  0
++         0  0  0  0  0  0  0  0  0  0  0  0  0  0  0  0  0
++         0  0  0  0  0  0  0  0  0  0  0  0  0  0  0  0  0
%c cc cc ccc ccc cccc cccc cccc cccc ccccc ccccc ccccc ccccc
%c cc cc ccc ccc cccc cccc cccc cccc ccccc ccccc ccccc ccccc
%f  0.0000000  0.000000000  0.00000000000  0.000000000000000
%f  0.0000000  0.000000000  0.00000000000  0.000000000000000
%i    0    0    0    0      0      0      0      0         0
%i    0    0    0    0      0      0      0      0         0
/*      NGA, ST. LOUIS,MO.                                  
/*   EPHEMERIS COMPUTED FROM 2 DAYS OF DATA                 
/*   EPOCHA v6 SMOOTHER                                     
/*   G2139 IERS2010 SATIGS SATAPC                           
*  2021  7 26 12 20  0.00000000
P  1  13134.780935 -12370.490844  19094.800507    616.643888                    
V  1    355.782586  24915.111073  16001.486348     -0.114639                    
P  2 -13337.652359 -13015.282417 -18249.600758   -622.193407                    
V  2    450.387394 -24598.260858  16692.475895     -0.025527                    
P  3  23577.622561 -12047.225832    960.328193   -232.694482                    
V  3     72.472747   2935.124633  32009.567666     -0.122977                    
P  4  17438.443815  -4797.096154 -19465.205939   -203.047994                    
V  4  19948.979995  14636.564023  14197.558407     -0.006234                    
P  5 -23443.895117   3917.536319 -12184.774030    -49.100402                    
V  5  11894.819702  -9679.895073 -26177.617091     -0.012060                    
P  6  -7084.793682 -22749.201257 -11614.169477     45.850933                    
V  6   2239.923217 -14764.898625  27476.996265      0.058363                    
P  7   6679.216241 -23953.205838  -8228.253937    211.160823                    
V  7   2997.006846  11211.007751 -29420.262002      0.085507                    
P  8  23354.635020   3842.018419  12343.203121    -30.216662                    
V  8  12436.642834   9566.908975 -26182.133616     -0.013505                    
P  9   6727.240993 -13889.252193 -21678.527277   -356.851435                    
V  9  23697.314547  13765.334993  -1493.082003     -0.013058                    
P 10   -536.499432  16546.206737  20823.821292   -169.716901                    
V 10 -23441.317152  11769.314659 -10279.961814     -0.076398                    
P 11 -12087.308452 -14223.432676 -18913.443750     23.859811                    
V 11   3435.224056 -23778.508534  15695.096196      0.073594                    
P 12 -24369.063094  10299.740991   1017.395965    -73.977341                    
V 12    399.897580  -2985.291296  32079.276222     -0.053373                    
P 13 -22570.481570 -12402.258135   6662.261845    162.776396                    
V 13  -5185.757499  -7255.994373 -30313.914735      0.050610                    
P 14    801.687884 -16626.496231  20684.047415     38.371397                    
V 14  24033.707067 -10713.479635  -9584.148707     -0.088487                    
P 15 -23720.337693  -1161.707203  11863.377906   -132.848053                    
V 15 -12904.028856  -9241.616177 -25545.934662      0.026664                    
P 16  20902.721171   3273.237636 -16579.824872   -363.335993                    
V 16 -18215.745119   9229.169839 -21017.771171     -0.061855                    
P 17  -7055.031554 -19138.519834  17436.114922    479.656643                    
V 17  18128.521120  11176.466425  20105.798327      0.058157                    
P 18  -5423.807295  25221.744464  -6149.904898    338.137088                    
V 18  -2168.680928  -7912.860644 -30686.037345     -0.029534                    
P 19 -15070.228759 -19636.826736   9543.031591     31.331493                    
V 19  11056.454245   6048.511826  28913.258966      0.049747                    
P 20 -16708.254753  -5583.753085 -19833.772187    519.986509                    
V 20  19319.349520 -16353.794630 -11949.765437     -0.001936                    
P 21  15355.022355  -3560.102517  22037.149841    133.561554                    
V 21   1797.253347  26341.433395   3617.175254      0.022479                    
P 22  23591.065572  -7902.291378   9190.835108   -554.016547                    
V 22  -7618.996365   9283.103982  28287.189993      0.094794                    
P 23 -12330.398062  18591.789621  14344.002563     79.373053                    
V 23 -16853.231837   7347.660518 -24031.313927     -0.051648                    
P 24 -14787.941669   7422.956121  20451.669289    187.956984                    
V 24  -2394.961171 -26643.125051   8238.927058      0.131266                    
P 25 -18238.317654  17060.956350  -8894.174081    180.208187                    
V 25 -10979.447127   2872.214774  29139.724745      0.066181                    
P 26  12180.232760  10646.803621 -21155.648564    115.171914                    
V 26 -22654.708574  14265.085321  -5607.095887      0.045331                    
P 27  23620.803677  12217.966926   2800.350160   -168.770073                    
V 27   2123.634478   3686.289165 -31579.938924     -0.057886                    
P 28  -5174.480450 -14334.279009  22306.642267    531.170409                    
V 28  24793.773452 -10612.918782   -909.775206     -0.066405                    
P 29  -9084.421163  11612.798858 -22141.200116   -386.299247                    
V 29 -22677.956058 -16297.537979    700.675552     -0.059843                    
P 30  -1309.393328 -26168.569985   3546.701402   -455.162148                    
V 30   3965.051682  -4276.106998 -30917.753870     -0.043060                    
P 31   8319.975250  21246.198368 -13278.174487   -130.771875                    
V 31  -3527.485583  16756.952611  25224.608482     -0.021230                    
P 32  11038.737421  19048.882285  15096.704187     11.880074                    
V 32 -17206.085171  -8073.298004  22772.850424     -0.022995                    
EOF
